{
    "links": {
        "self": "http://www.neowsapp.com/rest/v1/neo/3776271?api_key=iIulBulltgU6a56xZRHN4H3l9WmuAYTsLGpBGhQ2"
    },
    "id": "3776271",
    "neo_reference_id": "3776271",
    "name": "(2017 ML8)",
    "designation": "2017 ML8",
    "nasa_jpl_url": "http://ssd.jpl.nasa.gov/sbdb.cgi?sstr=3776271",
    "absolute_magnitude_h": 23.3,
    "estimated_diameter": {
        "kilometers": {
            "estimated_diameter_min": 0.058150704,
            "estimated_diameter_max": 0.130028927
        },
        "meters": {
            "estimated_diameter_min": 58.1507039646,
            "estimated_diameter_max": 130.0289270043
        },
        "miles": {
            "estimated_diameter_min": 0.0361331611,
            "estimated_diameter_max": 0.0807962044
        },
        "feet": {
            "estimated_diameter_min": 190.7831555951,
            "estimated_diameter_max": 426.6041048727
        }
    },
    "is_potentially_hazardous_asteroid": false,
    "close_approach_data": [
        {
            "close_approach_date": "2017-07-05",
            "close_approach_date_full": "2017-Jul-05 07:06",
            "epoch_date_close_approach": 1499238360000,
            "relative_velocity": {
                "kilometers_per_second": "6.1454348617",
                "kilometers_per_hour": "22123.5655019704",
                "miles_per_hour": "13746.7232420438"
            },
            "miss_distance": {
                "astronomical": "0.1241396012",
                "lunar": "48.2903048668",
                "kilometers": "18571019.922169444",
                "miles": "11539496.6860645672"
            },
            "orbiting_body": "Earth"
        },
        {
            "close_approach_date": "2042-08-15",
            "close_approach_date_full": "2042-Aug-15 00:54",
            "epoch_date_close_approach": 2291676840000,
            "relative_velocity": {
                "kilometers_per_second": "17.5546403764",
                "kilometers_per_hour": "63196.7053550242",
                "miles_per_hour": "39267.9750579593"
            },
            "miss_distance": {
                "astronomical": "0.4894064798",
                "lunar": "190.3791206422",
                "kilometers": "73214166.942278026",
                "miles": "45493173.7914317188"
            },
            "orbiting_body": "Earth"
        }
    ],
    "orbital_data": {
        "orbit_id": "4",
        "orbit_determination_date": "2017-07-30 06:17:55",
        "first_observation_date": "2017-06-24",
        "last_observation_date": "2017-07-26",
        "data_arc_in_days": 32,
        "observations_used": 22,
        "orbit_uncertainty": "6",
        "minimum_orbit_intersection": ".115921",
        "jupiter_tisserand_invariant": "3.366",
        "epoch_osculation": "2459000.5",
        "eccentricity": ".5175940424088993",
        "semi_major_axis": "2.338405537453233",
        "inclination": "5.85795081025481",
        "ascending_node_longitude": "302.5547095724885",
        "orbital_period": "1306.105243680169",
        "perihelion_distance": "1.128060762531459",
        "perihelion_argument": "341.5060820972486",
        "aphelion_distance": "3.548750312375007",
        "perihelion_time": "2459245.309173055149",
        "mean_anomaly": "292.5235828228292",
        "mean_motion": ".2756286308028594",
        "equinox": "J2000",
        "orbit_class": {
            "orbit_class_type": "AMO",
            "orbit_class_description": "Near-Earth asteroid orbits similar to that of 1221 Amor",
            "orbit_class_range": "1.017 AU < q (perihelion) < 1.3 AU"
        }
    },
    "is_sentry_object": false
}